49190,ONEWEB-0320,2021,109.2,148.0,+,87.91,Active,1,LEO,Kazakhstan,UK,Commercial,Communications,Soyuz,1 49190U 21083E   25007.47762733  .00000031  00000+0  46917-4 0  9994,2 49190  87.9098  80.0586 0001840 102.5174 257.6164 13.18687500161970,13.186875,0.000184,LEO
49191,ONEWEB-0321,2021,109.03,148.0,+,87.92,Active,1,LEO,Kazakhstan,UK,Commercial,Communications,Soyuz,1 49191U 21083F   25007.07002530  .00000043  00000+0  73530-4 0  9997,2 49191  87.9243  19.1118 0001643  96.7956 263.3364 13.20770809168667,13.20770809,0.0001643,LEO
49192,ONEWEB-0322,2021,109.63,148.0,+,87.89,Active,1,LEO,Kazakhstan,UK,Commercial,Communications,Soyuz,1 49192U 21083G   25006.69141280  .00000255  00000+0  66400-3 0  9993,2 49192  87.8913  64.9570 0001708 114.0087 246.1221 13.13470469161803,13.13470469,0.0001708,LEO
49193,ONEWEB-0324,2021,109.2,148.0,+,87.91,Active,1,LEO,Kazakhstan,UK,Commercial,Communications,Soyuz,1 49193U 21083H   25007.46340671  .00000052  00000+0  98181-4 0  9992,2 49193  87.9101  80.0417 0002090 101.4822 258.6545 13.18687279161996,13.18687279,0.000209,LEO
49194,ONEWEB-0325,2021,109.2,148.0,+,87.91,Active,1,LEO,Kazakhstan,UK,Commercial,Communications,Soyuz,1 49194U 21083J   25006.70939506  .00000017  00000+0  10599-4 0  9998,2 49194  87.9101  80.2084 0001758 104.9256 255.2071 13.18686413160623,13.18686413,0.0001758,LEO
49195,ONEWEB-0326,2021,109.2,148.0,+,87.91,Active,1,LEO,Kazakhstan,UK,Commercial,Communications,Soyuz,1 49195U 21083K   25007.17886597  .00000047  00000+0  86386-4 0  9992,2 49195  87.9097  80.1086 0001949  90.4782 269.6574 13.18687541161951,13.18687541,0.0001949,LEO
49196,ONEWEB-0327,2021,109.2,148.0,+,87.91,Active,1,LEO,Kazakhstan,UK,Commercial,Communications,Soyuz,1 49196U 21083L   25007.17807183  .00000108  00000+0  24203-3 0  9994,2 49196  87.9098  80.1352 0001827  91.1349 268.9992 13.18687983161979,13.18687983,0.0001827,LEO
49197,ONEWEB-0328,2021,109.63,148.0,+,87.89,Active,1,LEO,Kazakhstan,UK,Commercial,Communications,Soyuz,1 49197U 21083M   25006.68189252  .00000317  00000+0  83255-3 0  9994,2 49197  87.8900  64.9213 0002020 101.4285 258.7071 13.13468189161781,13.13468189,0.000202,LEO
